{"type": "FeatureCollection", "features": [ {"type": "Feature", "properties": {"norad_id": 30829, "name": "FENGYUN 1C DEB", "group": "fengyun-1c-debris", "lat": -48.25076453824155, "lon": -0.3414772815687578, "alt_km": 845.4572928369271, "timestamp": "2025-12-23T07:45:09.683285+00:00", "meta": {"OBJECT_NAME": "FENGYUN 1C DEB", "OBJECT_ID": "1999-025AVP", "EPOCH": "2025-12-21T04:50:35.348064", "MEAN_MOTION": 14.0866618, "ECCENTRICITY": 0.00351096, "INCLINATION": 98.7774, "RA_OF_ASC_NODE": 347.6253, "ARG_OF_PERICENTER": 310.4409, "MEAN_ANOMALY": 49.37, "EPHEMERIS_TYPE": 0, "CLASSIFICATION_TYPE": "U", "NORAD_CAT_ID": 30829, "ELEMENT_SET_NO": 999, "REV_AT_EPOCH": 96552, "BSTAR": 0.0003913399, "MEAN_MOTION_DOT": 6.34e-06, "MEAN_MOTION_DDOT": 0}, "tle": {"line1": "1 30829U 99025AVP 25355.20179801  .00000634  00000+0  39134-3 0  9990", "line2": "2 30829  98.7774 347.6253 0035109 310.4409  49.3700 14.08666180965525"}}, "geometry": {"type": "Point", "coordinates": [-0.3414772815687578, -48.25076453824155]}}, {"type": "Feature", "properties": {"norad_id": 30830, "name": "FENGYUN 1C DEB", "group": "fengyun-1c-debris", "lat": -58.60545748274452, "lon": 0.02927363245407267, "alt_km": 876.4440432682586, "timestamp": "2025-12-23T07:45:09.683295+00:00", "meta": {"OBJECT_NAME": "FENGYUN 1C DEB", "OBJECT_ID": "1999-025AVQ", "EPOCH": "2025-12-22T04:53:48.869376", "MEAN_MOTION": 14.12238294, "ECCENTRICITY": 0.00311567, "INCLINATION": 98.73, "RA_OF_ASC_NODE": 344.3567, "ARG_OF_PERICENTER": 161.8368, "MEAN_ANOMALY": 212.4442, "EPHEMERIS_TYPE": 0, "CLASSIFICATION_TYPE": "U", "NORAD_CAT_ID": 30830, "ELEMENT_SET_NO": 999, "REV_AT_EPOCH": 96733, "BSTAR": 0.00024107733, "MEAN_MOTION_DOT": 4.02e-06, "MEAN_MOTION_DDOT": 0}, "tle": {"line1": "1 30830U 99025AVQ 25356.20403784  .00000402  00000+0  24108-3 0  9991", "line2": "2 30830  98.7300 344.3567 0031156 161.8368 212.4442 14.12238294967337"}}, "geometry": {"type": "Point", "coordinates": [0.02927363245407267, -58.60545748274452]}}, {"type": "Feature", "properties": {"norad_id": 30831, "name": "FENGYUN 1C DEB", "group": "fengyun-1c-debris", "lat": 37.56249706188325, "lon": -21.878735776263778, "alt_km": 814.5796955925061, "timestamp": "2025-12-23T07:45:09.683305+00:00", "meta": {"OBJECT_NAME": "FENGYUN 1C DEB", "OBJECT_ID": "1999-025AVR", "EPOCH": "2025-12-22T04:14:50.951040", "MEAN_MOTION": 14.3110705, "ECCENTRICITY": 0.00552029, "INCLINATION": 99.3285, "RA_OF_ASC_NODE": 149.6295, "ARG_OF_PERICENTER": 6.9659, "MEAN_ANOMALY": 353.2277, "EPHEMERIS_TYPE": 0, "CLASSIFICATION_TYPE": "U", "NORAD_CAT_ID": 30831, "ELEMENT_SET_NO": 999, "REV_AT_EPOCH": 65385, "BSTAR": 0.00036919243, "MEAN_MOTION_DOT": 9.39e-06, "MEAN_MOTION_DDOT": 0}, "tle": {"line1": "1 30831U 99025AVR 25356.17697860  .00000939  00000+0  36919-3 0  9996", "line2": "2 30831  99.3285 149.6295 0055202   6.9659 353.2277 14.31107050653856"}}, "geometry": {"type": "Point", "coordinates": [-21.878735776263778, 37.56249706188325]}}, {"type": "Feature", "properties": {"norad_id": 30833, "name": "FENGYUN 1C DEB", "group": "fengyun-1c-debris", "lat": -3.6345751910686213, "lon": 145.34948238294834, "alt_km": 827.3596834546624, "timestamp": "2025-12-23T07:45:09.683315+00:00", "meta": {"OBJECT_NAME": "FENGYUN 1C DEB", "OBJECT_ID": "1999-025AVT", "EPOCH": "2025-12-22T16:37:21.942912", "MEAN_MOTION": 14.26783323, "ECCENTRICITY": 0.00331007, "INCLINATION": 99.8454, "RA_OF_ASC_NODE": 144.0091, "ARG_OF_PERICENTER": 153.1061, "MEAN_ANOMALY": 207.184, "EPHEMERIS_TYPE": 0, "CLASSIFICATION_TYPE": "U", "NORAD_CAT_ID": 30833, "ELEMENT_SET_NO": 999, "REV_AT_EPOCH": 64553, "BSTAR": 0.00049003244, "MEAN_MOTION_DOT": 1.14e-05, "MEAN_MOTION_DDOT": 0}, "tle": {"line1": "1 30833U 99025AVT 25356.69261508  .00001140  00000+0  49003-3 0  9994", "line2": "2 30833  99.8454 144.0091 0033100 153.1061 207.1840 14.26783323645535"}}, "geometry": {"type": "Point", "coordinates": [145.34948238294834, -3.6345751910686213]}}, {"type": "Feature", "properties": {"norad_id": 30836, "name": "FENGYUN 1C DEB", "group": "fengyun-1c-debris", "lat": -57.353069327813024, "lon": 43.62039583798558, "alt_km": 858.9259343658596, "timestamp": "2025-12-23T07:45:09.683325+00:00", "meta": {"OBJECT_NAME": "FENGYUN 1C DEB", "OBJECT_ID": "1999-025AVW", "EPOCH": "2025-12-21T01:36:21.545856", "MEAN_MOTION": 14.11944491, "ECCENTRICITY": 0.00260217, "INCLINATION": 98.7439, "RA_OF_ASC_NODE": 27.5216, "ARG_OF_PERICENTER": 220.4586, "MEAN_ANOMALY": 139.4651, "EPHEMERIS_TYPE": 0, "CLASSIFICATION_TYPE": "U", "NORAD_CAT_ID": 30836, "ELEMENT_SET_NO": 999, "REV_AT_EPOCH": 62121, "BSTAR": 0.00026112112, "MEAN_MOTION_DOT": 4.36e-06, "MEAN_MOTION_DDOT": 0}, "tle": {"line1": "1 30836U 99025AVW 25355.06691604  .00000436  00000+0  26112-3 0  9994", "line2": "2 30836  98.7439  27.5216 0026021 220.4586 139.4651 14.11944491621212"}}, "geometry": {"type": "Point", "coordinates": [43.62039583798558, -57.353069327813024]}}, {"type": "Feature", "properties": {"norad_id": 30837, "name": "FENGYUN 1C DEB", "group": "fengyun-1c-debris", "lat": 78.71935560372958, "lon": -66.7137342274751, "alt_km": 814.1131964600427, "timestamp": "2025-12-23T07:45:09.683335+00:00", "meta": {"OBJECT_NAME": "FENGYUN 1C DEB", "OBJECT_ID": "1999-025AVX", "EPOCH": "2025-12-21T21:32:58.369056", "MEAN_MOTION": 14.1453265, "ECCENTRICITY": 0.00332568, "INCLINATION": 98.6792, "RA_OF_ASC_NODE": 341.8767, "ARG_OF_PERICENTER": 107.9203, "MEAN_ANOMALY": 281.8511, "EPHEMERIS_TYPE": 0, "CLASSIFICATION_TYPE": "U", "NORAD_CAT_ID": 30837, "ELEMENT_SET_NO": 999, "REV_AT_EPOCH": 96948, "BSTAR": 0.00028611025, "MEAN_MOTION_DOT": 5.09e-06, "MEAN_MOTION_DDOT": 0}, "tle": {"line1": "1 30837U 99025AVX 25355.89789779  .00000509  00000+0  28611-3 0  9994", "line2": "2 30837  98.6792 341.8767 0033256 107.9203 281.8511 14.14532650969484"}}, "geometry": {"type": "Point", "coordinates": [-66.7137342274751, 78.71935560372958]}}, {"type": "Feature", "properties": {"norad_id": 30838, "name": "FENGYUN 1C DEB", "group": "fengyun-1c-debris", "lat": -79.00750790053989, "lon": -33.00365057103499, "alt_km": 761.5165252005063, "timestamp": "2025-12-23T07:45:09.683346+00:00", "meta": {"OBJECT_NAME": "FENGYUN 1C DEB", "OBJECT_ID": "1999-025AVY", "EPOCH": "2025-12-22T10:34:49.738080", "MEAN_MOTION": 14.47890794, "ECCENTRICITY": 0.0034902, "INCLINATION": 99.0431, "RA_OF_ASC_NODE": 270.9793, "ARG_OF_PERICENTER": 127.7568, "MEAN_ANOMALY": 232.6794, "EPHEMERIS_TYPE": 0, "CLASSIFICATION_TYPE": "U", "NORAD_CAT_ID": 30838, "ELEMENT_SET_NO": 999, "REV_AT_EPOCH": 97454, "BSTAR": 0.0026818994, "MEAN_MOTION_DOT": 9.976e-05, "MEAN_MOTION_DDOT": 0}, "tle": {"line1": "1 30838U 99025AVY 25356.44085345  .00009976  00000+0  26819-2 0  9999", "line2": "2 30838  99.0431 270.9793 0034902 127.7568 232.6794 14.47890794974546"}}, "geometry": {"type": "Point", "coordinates": [-33.00365057103499, -79.00750790053989]}}, {"type": "Feature", "properties": {"norad_id": 30840, "name": "FENGYUN 1C DEB", "group": "fengyun-1c-debris", "lat": -6.242040801460699, "lon": -172.5284733478247, "alt_km": 826.5571790477452, "timestamp": "2025-12-23T07:45:09.683356+00:00", "meta": {"OBJECT_NAME": "FENGYUN 1C DEB", "OBJECT_ID": "1999-025AWA", "EPOCH": "2025-12-21T18:44:16.569312", "MEAN_MOTION": 14.61189919, "ECCENTRICITY": 0.02168246, "INCLINATION": 98.022, "RA_OF_ASC_NODE": 6.8589, "ARG_OF_PERICENTER": 342.2186, "MEAN_ANOMALY": 17.1509, "EPHEMERIS_TYPE": 0, "CLASSIFICATION_TYPE": "U", "NORAD_CAT_ID": 30840, "ELEMENT_SET_NO": 999, "REV_AT_EPOCH": 73263, "BSTAR": 0.00063674912, "MEAN_MOTION_DOT": 4.327e-05, "MEAN_MOTION_DDOT": 0}, "tle": {"line1": "1 30840U 99025AWA 25355.78074733  .00004327  00000+0  63675-3 0  9994", "line2": "2 30840  98.0220   6.8589 0216824 342.2186  17.1509 14.61189919732636"}}, "geometry": {"type": "Point", "coordinates": [-172.5284733478247, -6.242040801460699]}}, {"type": "Feature", "properties": {"norad_id": 30843, "name": "FENGYUN 1C DEB", "group": "fengyun-1c-debris", "lat": 43.44994337149914, "lon": 61.03536726719843, "alt_km": 636.5559525391263, "timestamp": "2025-12-23T07:45:09.683366+00:00", "meta": {"OBJECT_NAME": "FENGYUN 1C DEB", "OBJECT_ID": "1999-025AWD", "EPOCH": "2025-12-21T15:52:25.519872", "MEAN_MOTION": 14.52488182, "ECCENTRICITY": 0.0148945, "INCLINATION": 98.8413, "RA_OF_ASC_NODE": 67.7641, "ARG_OF_PERICENTER": 92.7919, "MEAN_ANOMALY": 269.0332, "EPHEMERIS_TYPE": 0, "CLASSIFICATION_TYPE": "U", "NORAD_CAT_ID": 30843, "ELEMENT_SET_NO": 999, "REV_AT_EPOCH": 99454, "BSTAR": 0.00011001254, "MEAN_MOTION_DOT": 4.62e-06, "MEAN_MOTION_DDOT": 0}, "tle": {"line1": "1 30843U 99025AWD 25355.66140648  .00000462  00000+0  11001-3 0  9995", "line2": "2 30843  98.8413  67.7641 0148945  92.7919 269.0332 14.52488182994541"}}, "geometry": {"type": "Point", "coordinates": [61.03536726719843, 43.44994337149914]}}, {"type": "Feature", "properties": {"norad_id": 30845, "name": "FENGYUN 1C DEB", "group": "fengyun-1c-debris", "lat": -23.11521246991031, "lon": 0.2604876140071138, "alt_km": 990.0812373939125, "timestamp": "2025-12-23T07:45:09.683376+00:00", "meta": {"OBJECT_NAME": "FENGYUN 1C DEB", "OBJECT_ID": "1999-025AWF", "EPOCH": "2025-12-21T18:21:33.686208", "MEAN_MOTION": 13.76864531, "ECCENTRICITY": 0.01921106, "INCLINATION": 98.379, "RA_OF_ASC_NODE": 355.2796, "ARG_OF_PERICENTER": 245.9079, "MEAN_ANOMALY": 290.0104, "EPHEMERIS_TYPE": 0, "CLASSIFICATION_TYPE": "U", "NORAD_CAT_ID": 30845, "ELEMENT_SET_NO": 999, "REV_AT_EPOCH": 94367, "BSTAR": 0.00027550575, "MEAN_MOTION_DOT": 2.73e-06, "MEAN_MOTION_DDOT": 0}, "tle": {"line1": "1 30845U 99025AWF 25355.76497322  .00000273  00000+0  27551-3 0  9999", "line2": "2 30845  98.3790 355.2796 0192110 245.9079 290.0104 13.76864531943674"}}, "geometry": {"type": "Point", "coordinates": [0.2604876140071138, -23.11521246991031]}}]}